start=new Date('2022-10-10T00:00:00.000Z').valueOf();
sats=[{"SEMIMAJOR_AXIS":"6917.853","TLE_LINE1":"1 52638U 22052AS  22282.79775570  .00001439  00000-0  10846-3 0  9997","ARG_OF_PERICENTER":"61.3068","OBJECT_NAME":"STARLINK-3941","REV_AT_EPOCH":"2356","DECAY_DATE":null,"OBJECT_ID":"2022-052AS","COUNTRY_CODE":"US","EPHEMERIS_TYPE":"0","BSTAR":"0.00010846000000","REF_FRAME":"TEME","RCS_SIZE":"LARGE","INCLINATION":"53.2184","OBJECT_TYPE":"PAYLOAD","SITE":"AFETR","PERIOD":"95.437","FILE":"3598879","NORAD_CAT_ID":"52638","TIME_SYSTEM":"UTC","ECCENTRICITY":"0.00014470","TLE_LINE2":"2 52638  53.2184 106.6279 0001447  61.3068 298.8070 15.08848944 23561","LAUNCH_DATE":"2022-05-14","MEAN_MOTION_DOT":"0.00001439","EPOCH":"2022-10-09T19:08:46.092480","MEAN_ANOMALY":"298.8070","MEAN_ELEMENT_THEORY":"SGP4","CLASSIFICATION_TYPE":"U","ELEMENT_SET_NO":"999","CENTER_NAME":"EARTH","MEAN_MOTION_DDOT":"0.0000000000000","APOAPSIS":"540.719","MEAN_MOTION":"15.08848944","GP_ID":"214606544","PERIAPSIS":"538.717","RA_OF_ASC_NODE":"106.6279"},{"REF_FRAME":"TEME","BSTAR":"0.00013564000000","EPHEMERIS_TYPE":"0","OBJECT_TYPE":"PAYLOAD","INCLINATION":"53.2185","RCS_SIZE":"LARGE","SITE":"AFETR","PERIOD":"95.437","SEMIMAJOR_AXIS":"6917.863","TLE_LINE1":"1 52639U 22052AT  22282.76187881  .00001871  00000-0  13564-3 0  9997","ARG_OF_PERICENTER":"35.7836","OBJECT_NAME":"STARLINK-3968","DECAY_DATE":null,"REV_AT_EPOCH":"2369","COUNTRY_CODE":"US","OBJECT_ID":"2022-052AT","APOAPSIS":"541.323","MEAN_MOTION_DDOT":"0.0000000000000","CENTER_NAME":"EARTH","GP_ID":"214606151","MEAN_MOTION":"15.08845676","PERIAPSIS":"538.133","RA_OF_ASC_NODE":"96.7924","LAUNCH_DATE":"2022-05-14","MEAN_MOTION_DOT":"0.00001871","TLE_LINE2":"2 52639  53.2185  96.7924 0002306  35.7836 324.3310 15.08845676 23697","FILE":"3598879","ECCENTRICITY":"0.00023060","NORAD_CAT_ID":"52639","TIME_SYSTEM":"UTC","EPOCH":"2022-10-09T18:17:06.329184","MEAN_ELEMENT_THEORY":"SGP4","MEAN_ANOMALY":"324.3310","ELEMENT_SET_NO":"999","CLASSIFICATION_TYPE":"U"},{"MEAN_ANOMALY":"305.0230","MEAN_ELEMENT_THEORY":"SGP4","CLASSIFICATION_TYPE":"U","ELEMENT_SET_NO":"999","FILE":"3598059","TIME_SYSTEM":"UTC","NORAD_CAT_ID":"52640","ECCENTRICITY":"0.00018500","TLE_LINE2":"2 52640  53.2166  96.7200 0001850  55.0935 305.0230 15.08839812 23268","LAUNCH_DATE":"2022-05-14","MEAN_MOTION_DOT":"0.00000495","EPOCH":"2022-10-09T18:39:41.447520","PERIAPSIS":"538.466","RA_OF_ASC_NODE":"96.7200","CENTER_NAME":"EARTH","MEAN_MOTION_DDOT":"0.0000000000000","APOAPSIS":"541.026","MEAN_MOTION":"15.08839812","GP_ID":"214564887","REV_AT_EPOCH":"2326","DECAY_DATE":null,"OBJECT_ID":"2022-052AU","COUNTRY_CODE":"US","SEMIMAJOR_AXIS":"6917.881","TLE_LINE1":"1 52640U 22052AU  22282.77756305  .00000495  00000-0  49232-4 0  9996","OBJECT_NAME":"STARLINK-3977","ARG_OF_PERICENTER":"55.0935","SITE":"AFETR","PERIOD":"95.438","EPHEMERIS_TYPE":"0","BSTAR":"0.00004923200000","REF_FRAME":"TEME","RCS_SIZE":"LARGE","INCLINATION":"53.2166","OBJECT_TYPE":"PAYLOAD"},{"EPOCH":"2022-10-09T19:47:11.238432","MEAN_MOTION_DOT":"0.00002952","LAUNCH_DATE":"2022-05-14","TLE_LINE2":"2 52641  53.2170  96.5112 0002196  41.6123 318.5036 15.08846148 22901","NORAD_CAT_ID":"52641","FILE":"3598879","ECCENTRICITY":"0.00021960","TIME_SYSTEM":"UTC","ELEMENT_SET_NO":"999","CLASSIFICATION_TYPE":"U","MEAN_ELEMENT_THEORY":"SGP4","MEAN_ANOMALY":"318.5036","GP_ID":"214605573","MEAN_MOTION":"15.08846148","APOAPSIS":"541.246","MEAN_MOTION_DDOT":"0.0000000000000","CENTER_NAME":"EARTH","RA_OF_ASC_NODE":"96.5112","PERIAPSIS":"538.207","TLE_LINE1":"1 52641U 22052AV  22282.82443563  .00002952  00000-0  20344-3 0  9994","OBJECT_NAME":"STARLINK-3991","SEMIMAJOR_AXIS":"6917.862","ARG_OF_PERICENTER":"41.6123","COUNTRY_CODE":"US","OBJECT_ID":"2022-052AV","DECAY_DATE":null,"REV_AT_EPOCH":"2290","OBJECT_TYPE":"PAYLOAD","INCLINATION":"53.2170","RCS_SIZE":"LARGE","REF_FRAME":"TEME","BSTAR":"0.00020344000000","EPHEMERIS_TYPE":"0","PERIOD":"95.437","SITE":"AFETR"},{"DECAY_DATE":null,"REV_AT_EPOCH":"2326","COUNTRY_CODE":"US","OBJECT_ID":"2022-052AW","TLE_LINE1":"1 52642U 22052AW  22282.76925366 -.00000227  00000-0  38201-5 0  9991","OBJECT_NAME":"STARLINK-3971","SEMIMAJOR_AXIS":"6917.900","ARG_OF_PERICENTER":"45.4689","SITE":"AFETR","PERIOD":"95.438","REF_FRAME":"TEME","EPHEMERIS_TYPE":"0","BSTAR":"0.00000382010000","INCLINATION":"53.2167","OBJECT_TYPE":"PAYLOAD","RCS_SIZE":"LARGE","MEAN_ANOMALY":"314.6462","MEAN_ELEMENT_THEORY":"SGP4","CLASSIFICATION_TYPE":"U","ELEMENT_SET_NO":"999","TLE_LINE2":"2 52642  53.2167  96.7545 0001945  45.4689 314.6462 15.08833633 23265","MEAN_MOTION_DOT":"-0.00000227","LAUNCH_DATE":"2022-05-14","TIME_SYSTEM":"UTC","FILE":"3598060","NORAD_CAT_ID":"52642","ECCENTRICITY":"0.00019450","EPOCH":"2022-10-09T18:27:43.516224","PERIAPSIS":"538.419","RA_OF_ASC_NODE":"96.7545","APOAPSIS":"541.110","CENTER_NAME":"EARTH","MEAN_MOTION_DDOT":"0.0000000000000","MEAN_MOTION":"15.08833633","GP_ID":"214565241"},{"MEAN_MOTION_DDOT":"0.0000000000000","CENTER_NAME":"EARTH","APOAPSIS":"540.897","GP_ID":"214605734","MEAN_MOTION":"15.08837913","PERIAPSIS":"538.607","RA_OF_ASC_NODE":"96.5561","NORAD_CAT_ID":"52643","FILE":"3598879","ECCENTRICITY":"0.00016550","TIME_SYSTEM":"UTC","LAUNCH_DATE":"2022-05-14","MEAN_MOTION_DOT":"0.00002589","TLE_LINE2":"2 52643  53.2196  96.5561 0001655  51.8804 308.2337 15.08837913 22895","EPOCH":"2022-10-09T19:31:18.082272","MEAN_ELEMENT_THEORY":"SGP4","MEAN_ANOMALY":"308.2337","ELEMENT_SET_NO":"999","CLASSIFICATION_TYPE":"U","BSTAR":"0.00018073000000","EPHEMERIS_TYPE":"0","REF_FRAME":"TEME","RCS_SIZE":"LARGE","OBJECT_TYPE":"PAYLOAD","INCLINATION":"53.2196","SITE":"AFETR","PERIOD":"95.438","SEMIMAJOR_AXIS":"6917.887","TLE_LINE1":"1 52643U 22052AX  22282.81340373  .00002589  00000-0  18073-3 0  9992","ARG_OF_PERICENTER":"51.8804","OBJECT_NAME":"STARLINK-3963","REV_AT_EPOCH":"2289","DECAY_DATE":null,"OBJECT_ID":"2022-052AX","COUNTRY_CODE":"US"},{"PERIAPSIS":"538.159","RA_OF_ASC_NODE":"96.4786","APOAPSIS":"541.268","CENTER_NAME":"EARTH","MEAN_MOTION_DDOT":"0.0000000000000","MEAN_MOTION":"15.08850531","GP_ID":"214605414","MEAN_ANOMALY":"316.4762","MEAN_ELEMENT_THEORY":"SGP4","CLASSIFICATION_TYPE":"U","ELEMENT_SET_NO":"999","TLE_LINE2":"2 52644  53.2163  96.4786 0002247  43.6407 316.4762 15.08850531 22898","LAUNCH_DATE":"2022-05-14","MEAN_MOTION_DOT":"0.00004071","FILE":"3598879","TIME_SYSTEM":"UTC","NORAD_CAT_ID":"52644","ECCENTRICITY":"0.00022470","EPOCH":"2022-10-09T19:57:47.557152","SITE":"AFETR","PERIOD":"95.437","REF_FRAME":"TEME","EPHEMERIS_TYPE":"0","BSTAR":"0.00027363000000","INCLINATION":"53.2163","OBJECT_TYPE":"PAYLOAD","RCS_SIZE":"LARGE","DECAY_DATE":null,"REV_AT_EPOCH":"2289","COUNTRY_CODE":"US","OBJECT_ID":"2022-052AY","TLE_LINE1":"1 52644U 22052AY  22282.83180043  .00004071  00000-0  27363-3 0  9991","OBJECT_NAME":"STARLINK-3985","SEMIMAJOR_AXIS":"6917.848","ARG_OF_PERICENTER":"43.6407"},{"ARG_OF_PERICENTER":"45.6584","TLE_LINE1":"1 52645U 22052AZ  22282.81068338  .00000702  00000-0  62188-4 0  9994","SEMIMAJOR_AXIS":"6917.884","OBJECT_NAME":"STARLINK-3973","DECAY_DATE":null,"REV_AT_EPOCH":"2327","COUNTRY_CODE":"US","OBJECT_ID":"2022-052AZ","REF_FRAME":"TEME","EPHEMERIS_TYPE":"0","BSTAR":"0.00006218800000","INCLINATION":"53.2195","OBJECT_TYPE":"PAYLOAD","RCS_SIZE":"LARGE","SITE":"AFETR","PERIOD":"95.438","TLE_LINE2":"2 52645  53.2195  96.5699 0001912  45.6584 314.4565 15.08838930 23275","LAUNCH_DATE":"2022-05-14","MEAN_MOTION_DOT":"0.00000702","FILE":"3598061","ECCENTRICITY":"0.00019120","NORAD_CAT_ID":"52645","TIME_SYSTEM":"UTC","EPOCH":"2022-10-09T19:27:23.044032","MEAN_ANOMALY":"314.4565","MEAN_ELEMENT_THEORY":"SGP4","CLASSIFICATION_TYPE":"U","ELEMENT_SET_NO":"999","APOAPSIS":"541.071","CENTER_NAME":"EARTH","MEAN_MOTION_DDOT":"0.0000000000000","MEAN_MOTION":"15.08838930","GP_ID":"214564903","PERIAPSIS":"538.426","RA_OF_ASC_NODE":"96.5699"},{"REV_AT_EPOCH":"2326","DECAY_DATE":null,"OBJECT_ID":"2022-052BA","COUNTRY_CODE":"US","SEMIMAJOR_AXIS":"6917.969","TLE_LINE1":"1 52646U 22052BA  22282.75455210 -.00002866  00000-0 -16215-3 0  9991","OBJECT_NAME":"STARLINK-3832","ARG_OF_PERICENTER":"49.1610","SITE":"AFETR","PERIOD":"95.439","EPHEMERIS_TYPE":"0","BSTAR":"-0.00016215000000","REF_FRAME":"TEME","RCS_SIZE":"LARGE","INCLINATION":"53.2174","OBJECT_TYPE":"PAYLOAD","MEAN_ANOMALY":"310.9530","MEAN_ELEMENT_THEORY":"SGP4","CLASSIFICATION_TYPE":"U","ELEMENT_SET_NO":"999","ECCENTRICITY":"0.00016990","FILE":"3598061","NORAD_CAT_ID":"52646","TIME_SYSTEM":"UTC","TLE_LINE2":"2 52646  53.2174  96.8203 0001699  49.1610 310.9530 15.08810997 23263","LAUNCH_DATE":"2022-05-14","MEAN_MOTION_DOT":"-0.00002866","EPOCH":"2022-10-09T18:06:33.301440","PERIAPSIS":"538.659","RA_OF_ASC_NODE":"96.8203","CENTER_NAME":"EARTH","MEAN_MOTION_DDOT":"0.0000000000000","APOAPSIS":"541.009","MEAN_MOTION":"15.08810997","GP_ID":"214565254"},{"COUNTRY_CODE":"US","OBJECT_ID":"2022-052BB","DECAY_DATE":null,"REV_AT_EPOCH":"2290","TLE_LINE1":"1 52647U 22052BB  22282.80331972  .00000623  00000-0  57266-4 0  9995","OBJECT_NAME":"STARLINK-3846","SEMIMAJOR_AXIS":"6917.892","ARG_OF_PERICENTER":"42.6971","PERIOD":"95.438","SITE":"AFETR","INCLINATION":"53.2206","OBJECT_TYPE":"PAYLOAD","RCS_SIZE":"LARGE","REF_FRAME":"TEME","EPHEMERIS_TYPE":"0","BSTAR":"0.00005726600000","CLASSIFICATION_TYPE":"U","ELEMENT_SET_NO":"999","MEAN_ANOMALY":"317.4173","MEAN_ELEMENT_THEORY":"SGP4","EPOCH":"2022-10-09T19:16:46.823808","TLE_LINE2":"2 52647  53.2206  96.6048 0001964  42.6971 317.4173 15.08836248 22900","LAUNCH_DATE":"2022-05-14","MEAN_MOTION_DOT":"0.00000623","ECCENTRICITY":"0.00019640","FILE":"3598879","NORAD_CAT_ID":"52647","TIME_SYSTEM":"UTC","RA_OF_ASC_NODE":"96.6048","PERIAPSIS":"538.398","MEAN_MOTION":"15.08836248","GP_ID":"214606152","APOAPSIS":"541.116","CENTER_NAME":"EARTH","MEAN_MOTION_DDOT":"0.0000000000000"}];
